NORAD_CAT_ID,OBJECT_NAME,OBJECT_TYPE,EPOCH,MEAN_MOTION,ECCENTRICITY,INCLINATION,RA_OF_ASC_NODE,ARG_OF_PERICENTER,MEAN_ANOMALY,BSTAR,MEAN_MOTION_DOT,MEAN_MOTION_DDOT,TLE_LINE0,TLE_LINE1,TLE_LINE2,SEMIMAJOR_AXIS,PERIOD,APOGEE,PERIGEE,DECAYED
53803.0,STARLINK-4727,PAYLOAD,2022-11-13 06:00:02,15.73201529,0.0004242,53.2145,314.366,2.6826,32.2464,-0.00067665,-0.00094591,0.0,0 STARLINK-4727,1 53803U 22111AG  22317.25002315 -.00094591  00000-0 -67665-3 0  9992,2 53803  53.2145 314.3660 0004242   2.6826  32.2464 15.73201529  9869,6727.891,91.533,352.61,346.902,0.0
53803.0,STARLINK-4727,PAYLOAD,2022-11-13 14:00:01,15.73130781,0.000423,53.214,312.7165,0.5921,123.1578,8.5659e-06,5.75e-06,0.0,0 STARLINK-4727,1 53803U 22111AG  22317.58334491  .00000575  00000-0  85659-5 0  9993,2 53803  53.2140 312.7165 0004230   0.5921 123.1578 15.73130781  1304,6728.093000000003,91.537,352.80400000000014,347.112,0.0
53803.0,STARLINK-4727,PAYLOAD,2022-11-13 22:00:00,15.73117504,0.0003932,53.2142,311.0654,1.4126,211.1833,0.00076288,0.00107475,0.0,0 STARLINK-4727,1 53803U 22111AG  22317.91667824  .00107475  00000-0  76288-3 0  9992,2 53803  53.2142 311.0654 0003932   1.4126 211.1833 15.73117504  1306,6728.13,91.538,352.641,347.35,0.0
53803.0,STARLINK-4727,PAYLOAD,2022-11-14 14:00:01,15.73242609,0.0004105,53.2147,307.7683,1.0903,29.3119,-0.00043883,-0.00061905,0.0,0 STARLINK-4727,1 53803U 22111AG  22318.58334491 -.00061905  00000-0 -43883-3 0  9991,2 53803  53.2147 307.7683 0004105   1.0903  29.3119 15.73242609 10072,6727.774,91.531,352.4,346.87699999999984,0.0
53803.0,STARLINK-4727,PAYLOAD,2022-11-14 22:00:00,15.73259799,0.0003894,53.216,306.1174,1.925,117.4182,-0.00079667,-0.00111307,0.0,0 STARLINK-4727,1 53803U 22111AG  22318.91667824 -.00111307  00000-0 -79667-3 0  9998,2 53803  53.2160 306.1174 0003894   1.9250 117.4182 15.73259799  1306,6727.725,91.53,352.209,346.97,0.0
53803.0,STARLINK-4727,PAYLOAD,2022-11-15 02:00:01,15.73246717,0.0003929,53.2144,305.2932,4.5317,339.2913,-0.00061071,-0.0008568,0.0,0 STARLINK-4727,1 53803U 22111AG  22319.08334491 -.00085680  00000-0 -61071-3 0  9992,2 53803  53.2144 305.2932 0003929   4.5317 339.2913 15.73246717 10157,6727.762,91.53,352.27,346.9840000000001,0.0
53803.0,STARLINK-4727,PAYLOAD,2022-11-15 14:00:01,15.7318123,0.0004052,53.2135,302.8194,4.5039,292.7289,0.00020826,0.00028692,0.0,0 STARLINK-4727,1 53803U 22111AG  22319.58334491  .00028692  00000-0  20826-3 0  9998,2 53803  53.2135 302.8194 0004052   4.5039 292.7289 15.73181230  1303,6727.949000000001,91.534,352.54,347.088,0.0
53803.0,STARLINK-4727,PAYLOAD,2022-11-15 18:00:02,15.73172307,0.0003868,53.2137,301.9936,4.2305,157.5287,0.00062252,0.00087583,0.0,0 STARLINK-4727,1 53803U 22111AG  22319.75002315  .00087583  00000-0  62252-3 0  9997,2 53803  53.2137 301.9936 0003868   4.2305 157.5287 15.73172307 10251,6727.974,91.535,352.44199999999995,347.237,0.0
53803.0,STARLINK-4727,PAYLOAD,2022-11-15 22:00:00,15.73220881,0.0003798,53.2137,301.1684,4.9388,21.2081,0.00018819,0.00025902,0.0,0 STARLINK-4727,1 53803U 22111AG  22319.91667824  .00025902  00000-0  18819-3 0  9994,2 53803  53.2137 301.1684 0003798   4.9388  21.2081 15.73220881  1309,6727.8359999999975,91.532,352.256,347.145,0.0
53803.0,STARLINK-4727,PAYLOAD,2022-11-16 06:00:00,15.7321646,0.0004018,53.2143,299.5216,2.4732,112.6474,-0.00043553,-0.00061378,0.0,0 STARLINK-4727,1 53803U 22111AG  22320.25001157 -.00061378  00000-0 -43553-3 0  9996,2 53803  53.2143 299.5216 0004018   2.4732 112.6474 15.73216460 10331,6727.848000000001,91.532,352.416,347.01,0.0
53803.0,STARLINK-4727,PAYLOAD,2022-11-16 14:00:01,15.73230077,0.0004053999999999,53.2154,297.8719,2.7089,201.3861,-0.00053484,-0.00075155,0.0,0 STARLINK-4727,1 53803U 22111AG  22320.58335648 -.00075155  00000-0 -53484-3 0  9999,2 53803  53.2154 297.8719 0004054   2.7089 201.3861 15.73230077 10392,6727.809,91.531,352.402,346.94699999999995,0.0
53803.0,STARLINK-4727,PAYLOAD,2022-11-16 22:00:08,15.73157896,0.0003934,53.2168,296.2207,8.2712,285.1564,0.0005161,0.00072328,0.0,0 STARLINK-4727,1 53803U 22111AG  22320.91675926  .00072328  00000-0  51610-3 0  9998,2 53803  53.2168 296.2207 0003934   8.2712 285.1564 15.73157896  1300,6728.015,91.536,352.527,347.233,0.0
53803.0,STARLINK-4727,PAYLOAD,2022-11-17 06:00:00,15.73200007,0.0004048,53.2146,294.5722,2.4834,19.4383,0.00026664,0.00036977,0.0,0 STARLINK-4727,1 53803U 22111AG  22321.25001157  .00036977  00000-0  26664-3 0  9996,2 53803  53.2146 294.5722 0004048   2.4834  19.4383 15.73200007 10497,6727.895,91.533,352.4840000000001,347.037,0.0
53803.0,STARLINK-4727,PAYLOAD,2022-11-17 14:00:01,15.73170305,0.0004076,53.2168,292.9234,2.5597,108.2689,0.00039162,0.00054647,0.0,0 STARLINK-4727,1 53803U 22111AG  22321.58334491  .00054647  00000-0  39162-3 0  9993,2 53803  53.2168 292.9234 0004076   2.5597 108.2689 15.73170305  1302,6727.98,91.535,352.587,347.103,0.0
53803.0,STARLINK-4727,PAYLOAD,2022-11-17 22:00:00,15.73231337,0.0003721,53.2149,291.271,5.2302,194.594,-0.00017391,-0.00025002,0.0,0 STARLINK-4727,1 53803U 22111AG  22321.91667824 -.00025002  00000-0 -17391-3 0  9994,2 53803  53.2149 291.2710 0003721   5.2302 194.5940 15.73231337  1303,6727.806,91.531,352.1740000000001,347.167,0.0
53803.0,STARLINK-4727,PAYLOAD,2022-11-18 14:00:01,15.73203946,0.0003893,53.215,287.9728,2.1738,15.5613,8.3413e-05,0.00011104,0.0,0 STARLINK-4727,1 53803U 22111AG  22322.58334491  .00011104  00000-0  83413-4 0  9994,2 53803  53.2150 287.9728 0003893   2.1738  15.5613 15.73203946  1309,6727.884,91.533,352.36800000000005,347.13,0.0
53803.0,STARLINK-4727,PAYLOAD,2022-11-18 22:00:00,15.73247685,0.0003792,53.2151,286.3222,5.1581,101.4991,-0.00039224,-0.00055448,0.0,0 STARLINK-4727,1 53803U 22111AG  22322.91667824 -.00055448  00000-0 -39224-3 0  9991,2 53803  53.2151 286.3222 0003792   5.1581 101.4991 15.73247685  1301,6727.759,91.53,352.175,347.0730000000001,0.0
53803.0,STARLINK-4727,PAYLOAD,2022-11-19 14:00:01,15.73221613,0.000387,53.2142,283.0237,4.3203,280.2183,-0.00048024,-0.00067578,0.0,0 STARLINK-4727,1 53803U 22111AG  22323.58334491 -.00067578  00000-0 -48024-3 0  9991,2 53803  53.2142 283.0237 0003870   4.3203 280.2183 15.73221613  1302,6727.834,91.532,352.302,347.095,0.0
53803.0,STARLINK-4727,PAYLOAD,2022-11-19 22:00:00,15.73164087,0.0003694,53.2145,281.3734,4.4102,9.0565,0.00049761,0.00069708,0.0,0 STARLINK-4727,1 53803U 22111AG  22323.91667824  .00069708  00000-0  49761-3 0  9991,2 53803  53.2145 281.3734 0003694   4.4102   9.0565 15.73164087  1303,6727.998000000001,91.535,352.348,347.37699999999984,0.0
53803.0,STARLINK-4727,PAYLOAD,2022-11-20 14:00:01,15.73235376,0.0003848,53.2148,278.0747,3.2879,188.0429,-0.00030664,-0.00043522,0.0,0 STARLINK-4727,1 53803U 22111AG  22324.58334491 -.00043522  00000-0 -30664-3 0  9996,2 53803  53.2148 278.0747 0003848   3.2879 188.0429 15.73235376 11029,6727.794,91.531,352.24800000000016,347.07,0.0
53803.0,STARLINK-4727,PAYLOAD,2022-11-20 22:00:00,15.73220685,0.0003723,53.215,276.4245,6.1618,274.1212,-0.00049793,-0.00070019,0.0,0 STARLINK-4727,1 53803U 22111AG  22324.91667824 -.00070019  00000-0 -49793-3 0  9996,2 53803  53.2150 276.4245 0003723   6.1618 274.1212 15.73220685  1306,6727.8359999999975,91.532,352.206,347.196,0.0
53803.0,STARLINK-4727,PAYLOAD,2022-11-21 14:00:01,15.73214152,0.0003794,53.2144,273.1257,5.2613,92.8198,-1.4638e-05,-2.68e-05,0.0,0 STARLINK-4727,1 53803U 22111AG  22325.58334491 -.00002680  00000-0 -14638-4 0  9991,2 53803  53.2144 273.1257 0003794   5.2613  92.8198 15.73214152  1309,6727.855,91.532,352.272,347.167,0.0
53803.0,STARLINK-4727,PAYLOAD,2022-11-21 22:00:00,15.73205681,0.0003631,53.2148,271.4758,4.9597,182.0712,0.0001901,0.00026154,0.0,0 STARLINK-4727,1 53803U 22111AG  22325.91667824  .00026154  00000-0  19010-3 0  9995,2 53803  53.2148 271.4758 0003631   4.9597 182.0712 15.73205681  1308,6727.879,91.533,352.18699999999984,347.301,0.0
53803.0,STARLINK-4727,PAYLOAD,2022-11-22 14:00:01,15.73185154,0.0003733,53.2152,268.1767,4.1126,0.8813,-0.0002423,-0.00034482,0.0,0 STARLINK-4727,1 53803U 22111AG  22326.58335648 -.00034482  00000-0 -24230-3 0  9990,2 53803  53.2152 268.1767 0003733   4.1126   0.8813 15.73185154 11334,6727.938,91.534,352.314,347.291,0.0
53803.0,STARLINK-4727,PAYLOAD,2022-11-22 22:00:00,15.73213677,0.0003715,53.2153,266.527,7.1027,86.7143,-0.00023852,-0.00033997,0.0,0 STARLINK-4727,1 53803U 22111AG  22326.91667824 -.00033997  00000-0 -23852-3 0  9990,2 53803  53.2153 266.5270 0003715   7.1027  86.7143 15.73213677 11385,6727.856,91.532,352.221,347.222,0.0
53803.0,STARLINK-4727,PAYLOAD,2022-11-23 14:00:01,15.73169817,0.0003684,53.2149,263.2281,3.3578,268.2899,-0.00012052,-0.00017488,0.0,0 STARLINK-4727,1 53803U 22111AG  22327.58334491 -.00017488  00000-0 -12052-3 0  9992,2 53803  53.2149 263.2281 0003684   3.3578 268.2899 15.73169817  1302,6727.981,91.535,352.325,347.36800000000005,0.0
53803.0,STARLINK-4727,PAYLOAD,2022-11-23 22:00:00,15.73180526,0.0003607,53.2151,261.5789,3.6996,356.8198,0.0002218,0.00030602,0.0,0 STARLINK-4727,1 53803U 22111AG  22327.91667824  .00030602  00000-0  22180-3 0  9992,2 53803  53.2151 261.5789 0003607   3.6996 356.8198 15.73180526  1318,6727.951,91.534,352.242,347.389,0.0
53803.0,STARLINK-4727,PAYLOAD,2022-11-24 00:00:00,15.73188516,0.0003687,53.215,261.1671,4.0148,108.7306,0.00017858,0.00024508,0.0,0 STARLINK-4727,1 53803U 22111AG  22328.00001157  .00024508  00000-0  17858-3 0  9998,2 53803  53.2150 261.1671 0003687   4.0148 108.7306 15.73188516 11554,6727.928000000001,91.534,352.274,347.31199999999984,0.0
53803.0,STARLINK-4727,PAYLOAD,2022-11-24 14:00:01,15.73185986,0.0003716,53.2154,258.2796,7.8318,170.5558,0.00027769,0.00038517,0.0,0 STARLINK-4727,1 53803U 22111AG  22328.58334491  .00038517  00000-0  27769-3 0  9998,2 53803  53.2154 258.2796 0003716   7.8318 170.5558 15.73185986  1302,6727.935,91.534,352.3,347.3,0.0
